NORAD_CAT_ID,OBJECT_NAME,OBJECT_TYPE,EPOCH,MEAN_MOTION,ECCENTRICITY,INCLINATION,RA_OF_ASC_NODE,ARG_OF_PERICENTER,MEAN_ANOMALY,BSTAR,MEAN_MOTION_DOT,MEAN_MOTION_DDOT,TLE_LINE0,TLE_LINE1,TLE_LINE2,SEMIMAJOR_AXIS,PERIOD,APOGEE,PERIGEE,DECAYED
49419.0,STARLINK-3120,PAYLOAD,2022-04-17 14:00:01,15.08807009,0.0002802,53.2149,133.2003,29.3297,319.5065,0.0012203,0.00019169,0.0,0 STARLINK-3120,1 49419U 21104M   22107.58334491  .00019169  00000-0  12203-2 0  9990,2 49419  53.2149 133.2003 0002802  29.3297 319.5065 15.08807009 25014,6917.981,95.44,541.785,537.908,0.0
49419.0,STARLINK-3120,PAYLOAD,2022-04-17 22:00:00,15.08794848,0.0002609,53.215,131.702,33.022,327.39,0.0030142,0.00047952,0.0,0 STARLINK-3120,1 49419U 21104M   22107.91667824  .00047952  00000-0  30142-2 0  9999,2 49419  53.2150 131.7020 0002609  33.0220 327.3900 15.08794848  3579,6918.018,95.44,541.688,538.078,0.0
49419.0,STARLINK-3120,PAYLOAD,2022-04-18 14:00:01,15.08823543,0.00029,53.2149,128.7108,30.9969,352.5521,0.00083783,0.00013066,0.0,0 STARLINK-3120,1 49419U 21104M   22108.58334491  .00013066  00000-0  83783-3 0  9993,2 49419  53.2149 128.7108 0002900  30.9969 352.5521 15.08823543 25174,6917.931,95.439,541.802,537.789,0.0
49419.0,STARLINK-3120,PAYLOAD,2022-04-18 22:00:00,15.08808148,0.0002717,53.2152,127.2125,34.6726,0.4683,0.0031421999999999,0.00050033,0.0,0 STARLINK-3120,1 49419U 21104M   22108.91667824  .00050033  00000-0  31422-2 0  9996,2 49419  53.2152 127.2125 0002717  34.6726   0.4683 15.08808148  3571,6917.978,95.44,541.722,537.9630000000002,0.0
49419.0,STARLINK-3120,PAYLOAD,2022-04-19 14:00:01,15.08842133,0.0003013999999999,53.2154,124.2213,32.9608,25.3507,0.00049263,7.561e-05,0.0,0 STARLINK-3120,1 49419U 21104M   22109.58334491  .00007561  00000-0  49263-3 0  9992,2 49419  53.2154 124.2213 0003014  32.9608  25.3507 15.08842133  3606,6917.874,95.437,541.8240000000002,537.654,0.0
49419.0,STARLINK-3120,PAYLOAD,2022-04-19 22:00:00,15.08824985,0.000283,53.2158,122.7232,36.6109,33.311,0.003103,0.00049424,0.0,0 STARLINK-3120,1 49419U 21104M   22109.91667824  .00049424  00000-0  31030-2 0  9994,2 49419  53.2158 122.7232 0002830  36.6109  33.3110 15.08824985 25378,6917.926,95.439,541.749,537.8340000000002,0.0
49419.0,STARLINK-3120,PAYLOAD,2022-04-20 14:00:01,15.08871986,0.0003085,53.2162,119.732,34.3163,58.81,-0.0026354,-0.00042027,0.0,0 STARLINK-3120,1 49419U 21104M   22110.58334491 -.00042027  00000-0 -26354-2 0  9997,2 49419  53.2162 119.7320 0003085  34.3163  58.8100 15.08871986 25470,6917.783,95.436,541.7819999999998,537.513,0.0
49419.0,STARLINK-3120,PAYLOAD,2022-04-20 22:00:00,15.08816091,0.000285,53.2167,118.234,36.9388,67.815,0.0028919,0.00046009,0.0,0 STARLINK-3120,1 49419U 21104M   22110.91667824  .00046009  00000-0  28919-2 0  9994,2 49419  53.2167 118.2340 0002850  36.9388  67.8150 15.08816091  3597,6917.953,95.439,541.79,537.847,0.0
49419.0,STARLINK-3120,PAYLOAD,2022-04-21 06:00:00,15.08853739,0.0002973,53.217,116.7384,37.4851,78.84899999999998,-0.0020616,-0.00032964,0.0,0 STARLINK-3120,1 49419U 21104M   22111.25001157 -.00032964  00000-0 -20616-2 0  9996,2 49419  53.2170 116.7384 0002973  37.4851  78.8490 15.08853739 25570,6917.8380000000025,95.437,541.76,537.6469999999998,0.0
49419.0,STARLINK-3120,PAYLOAD,2022-04-21 14:00:01,15.08854934,0.0003091,53.2169,115.2428,35.5566,92.3785,-0.00024851,-4.244e-05,0.0,0 STARLINK-3120,1 49419U 21104M   22111.58334491 -.00004244  00000-0 -24851-3 0  9998,2 49419  53.2169 115.2428 0003091  35.5566  92.3785 15.08854934  3566,6917.835,95.437,541.8380000000002,537.561,0.0
49419.0,STARLINK-3120,PAYLOAD,2022-04-21 22:00:00,15.08848457,0.0002863,53.2173,113.745,38.6266,100.9228,-0.00017163,-3.02e-05,0.0,0 STARLINK-3120,1 49419U 21104M   22111.91667824 -.00003020  00000-0 -17163-3 0  9993,2 49419  53.2173 113.7450 0002863  38.6266 100.9228 15.08848457  3590,6917.855,95.437,541.7,537.739,0.0
49419.0,STARLINK-3120,PAYLOAD,2022-04-22 14:00:01,15.08846244,0.0003027,53.2171,110.7539,36.111,126.6257,-0.00091669,-0.00014852,0.0,0 STARLINK-3120,1 49419U 21104M   22112.58334491 -.00014852  00000-0 -91669-3 0  9996,2 49419  53.2171 110.7539 0003027  36.1110 126.6257 15.08846244 25770,6917.861,95.437,541.82,537.632,0.0
49419.0,STARLINK-3120,PAYLOAD,2022-04-23 14:00:01,15.08838299,0.0002936,53.2169,106.2649,36.7804,160.7284,-0.0012481,-0.00020098,0.0,0 STARLINK-3120,1 49419U 21104M   22113.58334491 -.00020098  00000-0 -12481-2 0  9990,2 49419  53.2169 106.2649 0002936  36.7804 160.7284 15.08838299  3566,6917.886,95.438,541.7819999999998,537.719,0.0
49419.0,STARLINK-3120,PAYLOAD,2022-04-23 22:00:00,15.08818236,0.0002768999999999,53.217,104.7674,40.8756,168.2199,0.0023144,0.00036717,0.0,0 STARLINK-3120,1 49419U 21104M   22113.91667824  .00036717  00000-0  23144-2 0  9997,2 49419  53.2170 104.7674 0002769  40.8756 168.2199 15.08818236 25971,6917.946999999999,95.439,541.727,537.896,0.0
49419.0,STARLINK-3120,PAYLOAD,2022-04-24 14:00:01,15.08858943,0.0002938,53.2164,101.776,39.2797,192.991,-0.0015895999999999,-0.00025513,0.0,0 STARLINK-3120,1 49419U 21104M   22114.58334491 -.00025513  00000-0 -15896-2 0  9991,2 49419  53.2164 101.7760 0002938  39.2797 192.9910 15.08858943 26078,6917.821999999999,95.436,541.72,537.655,0.0
49419.0,STARLINK-3120,PAYLOAD,2022-04-25 14:00:01,15.08850762,0.0002901,53.2161,97.2867,39.5499,227.5118,-0.0018144,-0.0002906,0.0,0 STARLINK-3120,1 49419U 21104M   22115.58334491 -.00029060  00000-0 -18144-2 0  9992,2 49419  53.2161  97.2867 0002901  39.5499 227.5118 15.08850762 26227,6917.847,95.437,541.719,537.706,0.0
49419.0,STARLINK-3120,PAYLOAD,2022-04-25 22:00:00,15.08839236,0.0002784,53.2162,95.7891,43.567,235.0895,0.00068418,0.00010617,0.0,0 STARLINK-3120,1 49419U 21104M   22115.91667824  .00010617  00000-0  68418-3 0  9994,2 49419  53.2162  95.7891 0002784  43.5670 235.0895 15.08839236  3610,6917.8830000000025,95.438,541.674,537.822,0.0
49419.0,STARLINK-3120,PAYLOAD,2022-04-26 06:00:00,15.08828133,0.0002975,53.2163,94.2944,40.3707,249.8962,-0.00029325,-4.952e-05,0.0,0 STARLINK-3120,1 49419U 21104M   22116.25001157 -.00004952  00000-0 -29325-3 0  9994,2 49419  53.2163  94.2944 0002975  40.3707 249.8962 15.08828133 26327,6917.917,95.438,541.84,537.724,0.0
49419.0,STARLINK-3120,PAYLOAD,2022-04-26 14:00:01,15.08849548,0.00029,53.2162,92.7972,39.7977,262.108,-0.0017658,-0.00028291,0.0,0 STARLINK-3120,1 49419U 21104M   22116.58335648 -.00028291  00000-0 -17658-2 0  9992,2 49419  53.2162  92.7972 0002900  39.7977 262.1080 15.08849548  3595,6917.851,95.437,541.722,537.71,0.0
49419.0,STARLINK-3120,PAYLOAD,2022-04-26 22:00:00,15.08841817,0.0002787,53.2166,91.2997,43.7121,269.7221,0.0006246,9.667e-05,0.0,0 STARLINK-3120,1 49419U 21104M   22116.91667824  .00009667  00000-0  62460-3 0  9999,2 49419  53.2166  91.2997 0002787  43.7121 269.7221 15.08841817 26427,6917.875,95.437,541.668,537.812,0.0
49419.0,STARLINK-3120,PAYLOAD,2022-04-27 14:00:01,15.08848611,0.0002904,53.2166,88.3077,40.462,296.2168,-0.0016558,-0.00026552,0.0,0 STARLINK-3120,1 49419U 21104M   22117.58335648 -.00026552  00000-0 -16558-2 0  9999,2 49419  53.2166  88.3077 0002904  40.4620 296.2168 15.08848611 26527,6917.854,95.437,541.7280000000002,537.71,0.0
49419.0,STARLINK-3120,PAYLOAD,2022-04-28 06:00:00,15.08832779,0.0002971,53.2172,85.3158,41.2515,318.5791,0.00090372,0.00014121,0.0,0 STARLINK-3120,1 49419U 21104M   22118.25001157  .00014121  00000-0  90372-3 0  9993,2 49419  53.2172  85.3158 0002971  41.2515 318.5791 15.08832779 26626,6917.901999999999,95.438,541.823,537.712,0.0
49419.0,STARLINK-3120,PAYLOAD,2022-04-28 14:00:01,15.08863285,0.000284,53.2173,83.8182,41.1935,330.2290000000001,-0.0010346,-0.00016728,0.0,0 STARLINK-3120,1 49419U 21104M   22118.58334491 -.00016728  00000-0 -10346-2 0  9998,2 49419  53.2173  83.8182 0002840  41.1935 330.2290 15.08863285  3577,6917.809,95.436,541.639,537.71,0.0
49419.0,STARLINK-3120,PAYLOAD,2022-04-29 14:00:01,15.08836669,0.0002622,53.2179,79.3289,38.9501,7.2971,-0.0022105,-0.00035296,0.0,0 STARLINK-3120,1 49419U 21104M   22119.58334491 -.00035296  00000-0 -22105-2 0  9996,2 49419  53.2179  79.3289 0002622  38.9501   7.2971 15.08836669 26839,6917.891,95.438,541.569,537.942,0.0
49419.0,STARLINK-3120,PAYLOAD,2022-04-29 22:00:00,15.08826263,0.0002506,53.2183,77.8323,41.3442,16.4739,0.0013682,0.00021546,0.0,0 STARLINK-3120,1 49419U 21104M   22119.91667824  .00021546  00000-0  13682-2 0  9993,2 49419  53.2183  77.8323 0002506  41.3442  16.4739 15.08826263  3578,6917.922,95.438,541.521,538.054,0.0
49419.0,STARLINK-3120,PAYLOAD,2022-04-30 06:00:00,15.08832227,0.0002667,53.2183,76.3377,37.9953,31.4129,-0.00080216,-0.0001303,0.0,0 STARLINK-3120,1 49419U 21104M   22120.25001157 -.00013030  00000-0 -80216-3 0  9992,2 49419  53.2183  76.3377 0002667  37.9953  31.4129 15.08832227 26939,6917.904,95.438,541.614,537.924,0.0
49419.0,STARLINK-3120,PAYLOAD,2022-04-30 14:00:01,15.08830008,0.0002484,53.2182,74.84,38.7815,42.2082,-0.00017864,-3.13e-05,0.0,0 STARLINK-3120,1 49419U 21104M   22120.58334491 -.00003130  00000-0 -17864-3 0  9997,2 49419  53.2182  74.8400 0002484  38.7815  42.2082 15.08830008  3579,6917.911,95.438,541.494,538.058,0.0
49419.0,STARLINK-3120,PAYLOAD,2022-04-30 22:00:00,15.08842585,0.0002406,53.2184,73.3437,41.4208,51.1422,0.00042688,6.513e-05,0.0,0 STARLINK-3120,1 49419U 21104M   22120.91667824  .00006513  00000-0  42688-3 0  9991,2 49419  53.2184  73.3437 0002406  41.4208  51.1422 15.08842585  3576,6917.871999999999,95.437,541.4019999999998,538.073,0.0
49419.0,STARLINK-3120,PAYLOAD,2022-05-01 06:00:00,15.08827722,0.000255,53.2183,71.8491,37.4798,66.6903,3.3857e-05,2.5e-06,0.0,0 STARLINK-3120,1 49419U 21104M   22121.25001157  .00000250  00000-0  33857-4 0  9991,2 49419  53.2183  71.8491 0002550  37.4798  66.6903 15.08827722 27080,6917.918000000002,95.438,541.547,538.019,0.0
